stk.v.10.0
# WrittenBy    GMAT R2020a
BEGIN Ephemeris
NumberOfEphemerisPoints 17281
ScenarioEpoch           01 Jan 2023 00:00:00.000
InterpolationMethod     Lagrange
InterpolationOrder      7
CentralBody             Earth
CoordinateSystem        J2000
DistanceUnit            Kilometers
BEGIN SegmentBoundaryTimes
   0.000000000000000e+00
   2.499500000027474e+04
   4.999500000014668e+04
   7.499500000001863e+04
END SegmentBoundaryTimes

EphemerisTimePosVel

7.011000000002095e+04  -1.228606836265402e+03   6.721854889168478e+02   6.778957692012651e+03   7.308145806941093e+00   1.654342440536260e+00   1.155809802399141e+00
7.011500000024680e+04  -1.192047930022251e+03   6.804471148970607e+02   6.784635129463288e+03   7.315380219614893e+00   1.650299711035237e+00   1.115159505934366e+00
7.012000000015832e+04  -1.155453398244106e+03   6.886884038874081e+02   6.790109231506558e+03   7.322395988210428e+00   1.646207665185806e+00   1.074475840888958e+00
7.012500000006985e+04  -1.118824334689824e+03   6.969091096031221e+02   6.795379834304484e+03   7.329192905873005e+00   1.642066424132047e+00   1.033760013809143e+00
7.012999999998137e+04  -1.082161834102737e+03   7.051089863784284e+02   6.800446780074984e+03   7.335770771974116e+00   1.637876110400648e+00   9.930132320348138e-01
7.013500000020722e+04  -1.045466992229046e+03   7.132877891592692e+02   6.805309917065272e+03   7.342129392280522e+00   1.633636847951567e+00   9.522367038169246e-01
7.014000000011874e+04  -1.008740905770848e+03   7.214452735147491e+02   6.809969099565546e+03   7.348268578908699e+00   1.629348762158119e+00   9.114316382394680e-01
7.014500000003027e+04  -9.719846723537200e+02   7.295811956443774e+02   6.814424187913439e+03   7.354188150327062e+00   1.625011979802768e+00   8.705992451850734e-01
7.015000000025611e+04  -9.351993904949472e+02   7.376953123851071e+02   6.818675048497944e+03   7.359887931360166e+00   1.620626629073629e+00   8.297407353025725e-01
7.015500000016764e+04  -8.983861595717250e+02   7.457873812183531e+02   6.822721553763169e+03   7.365367753192851e+00   1.616192839560917e+00   7.888573199745587e-01
7.016000000007916e+04  -8.615460797893458e+02   7.538571602769969e+02   6.826563582211909e+03   7.370627453374178e+00   1.611710742253385e+00   7.479502112849437e-01
7.016499999999069e+04  -8.246802521493613e+02   7.619044083523694e+02   6.830201018409088e+03   7.375666875821295e+00   1.607180469534732e+00   7.070206219865104e-01
7.017000000021653e+04  -7.877897784177313e+02   7.699288849012178e+02   6.833633752984986e+03   7.380485870823144e+00   1.602602155179975e+00   6.660697654684635e-01
7.017500000012806e+04  -7.508757610929512e+02   7.779303500526534e+02   6.836861682638386e+03   7.385084295044045e+00   1.597975934351808e+00   6.250988557239792e-01
7.018000000003958e+04  -7.139393033741613e+02   7.859085646150809e+02   6.839884710139473e+03   7.389462011527157e+00   1.593301943596927e+00   5.841091073177466e-01
7.018500000026543e+04  -6.769815091292428e+02   7.938632900831101e+02   6.842702744332630e+03   7.393618889697796e+00   1.588580320842324e+00   5.431017353535113e-01
7.019000000017695e+04  -6.400034828628966e+02   8.017942886444481e+02   6.845315700139029e+03   7.397554805366635e+00   1.583811205391562e+00   5.020779554416124e-01
7.019500000008848e+04  -6.030063296847051e+02   8.097013231867733e+02   6.847723498559110e+03   7.401269640732770e+00   1.578994737921020e+00   4.610389836665185e-01
7.020000000000000e+04  -5.659911552771803e+02   8.175841573045898e+02   6.849926066674839e+03   7.404763284386677e+00   1.574131060476111e+00   4.199860365543584e-01
7.020500000022585e+04  -5.289590658637992e+02   8.254425553060635e+02   6.851923337651853e+03   7.408035631313002e+00   1.569220316467475e+00   3.789203310404495e-01
7.021000000013737e+04  -4.919111681770245e+02   8.332762822198380e+02   6.853715250741411e+03   7.411086582893258e+00   1.564262650667140e+00   3.378430844368241e-01
7.021500000004889e+04  -4.548485694297310e+02   8.410851038012649e+02   6.855301751283154e+03   7.413916046916640e+00   1.559258209206984e+00   2.967555144043746e-01
7.022000000027474e+04  -4.177723773062474e+02   8.488687865353518e+02   6.856682790713093e+03   7.416523937638106e+00   1.554207139590492e+00   2.556588389515491e-01
7.022500000018626e+04  -3.806836998397740e+02   8.566270976585688e+02   6.857858326540070e+03   7.418910175561924e+00   1.549109590627356e+00   2.145542762793403e-01
7.023000000009779e+04  -3.435836454778538e+02   8.643598051493864e+02   6.858828322374002e+03   7.421074687679361e+00   1.543965712495722e+00   1.734430448806984e-01
7.023500000000931e+04  -3.064733230169726e+02   8.720666777405398e+02   6.859592747917824e+03   7.423017407390113e+00   1.538775656715573e+00   1.323263634628991e-01
7.024000000023516e+04  -2.693538415705255e+02   8.797474849257242e+02   6.860151578968484e+03   7.424738274504274e+00   1.533539576144739e+00   9.120545091506539e-02
7.024500000014668e+04  -2.322263105367770e+02   8.874019969662696e+02   6.860504797417753e+03   7.426237235244147e+00   1.528257624974892e+00   5.008152627568585e-02
7.025000000005821e+04  -1.950918395668115e+02   8.950299848978005e+02   6.860652391252913e+03   7.427514242245956e+00   1.522929958727500e+00   8.955808700127112e-03
7.025500000028405e+04  -1.579515385324753e+02   9.026312205368673e+02   6.860594354557251e+03   7.428569254561402e+00   1.517556734249768e+00  -3.217048257185622e-02
7.026000000019558e+04  -1.208065174943135e+02   9.102054764875652e+02   6.860330687510409e+03   7.429402237659118e+00   1.512138109710541e+00  -7.329612824861795e-02
7.026500000010710e+04  -8.365788666949612e+01   9.177525261481267e+02   6.859861396388541e+03   7.430013163425967e+00   1.506674244596185e+00  -1.144199090191212e-01
7.027000000001863e+04  -4.650675639974318e+01   9.252721437174963e+02   6.859186493564371e+03   7.430402010168238e+00   1.501165299706445e+00  -1.555406055854431e-01
7.027500000024447e+04  -9.354237119238640e+00   9.327641042018853e+02   6.858305997507002e+03   7.430568762612705e+00   1.495611437150269e+00  -1.966569986952878e-01
7.028000000015600e+04   2.779856067745647e+01   9.402281834213005e+02   6.857219932781644e+03   7.430513411907552e+00   1.490012820341606e+00  -2.377678691745011e-01
7.028500000006752e+04   6.495052646749832e+01   9.476641580160592e+02   6.855928330049121e+03   7.430235955623181e+00   1.484369613995184e+00  -2.788719979595939e-01
7.028999999997905e+04   1.021005497318572e+02   9.550718054532781e+02   6.854431226065245e+03   7.429736397752873e+00   1.478681984122253e+00  -3.199681661302704e-01
7.029500000020489e+04   1.392475199874187e+02   9.624509040333405e+02   6.852728663680016e+03   7.429014748713352e+00   1.472950098026302e+00  -3.610551549419618e-01
7.030000000011642e+04   1.763903268190872e+02   9.698012328963472e+02   6.850820691836662e+03   7.428071025345182e+00   1.467174124298757e+00  -4.021317458583679e-01
7.030500000002794e+04   2.135278599118917e+02   9.771225720285395e+02   6.848707365570528e+03   7.426905250913067e+00   1.461354232814637e+00  -4.431967205840026e-01
7.031000000025379e+04   2.506590090974940e+02   9.844147022715778e+02   6.846388746007132e+03   7.425517455123283e+00   1.455490594729093e+00  -4.842488611161945e-01
7.031500000016531e+04   2.877826643933828e+02   9.916774053303390e+02   6.843864900360430e+03   7.423907674132187e+00   1.449583382473456e+00  -5.252869497872160e-01
7.032000000007683e+04   3.248977159255181e+02   9.989104637574342e+02   6.841135901936017e+03   7.422075950414880e+00   1.443632769744015e+00  -5.663097691490200e-01
7.032499999998836e+04   3.620030540990661e+02   1.006113660987207e+03   6.838201830123248e+03   7.420022332931185e+00   1.437638931506192e+00  -6.073161021930229e-01
7.033000000021420e+04   3.990975695799185e+02   1.013286781331958e+03   6.835062770395514e+03   7.417746877064643e+00   1.431602043986917e+00  -6.483047323143671e-01
7.033500000012573e+04   4.361801533268257e+02   1.020429609988242e+03   6.831718814308165e+03   7.415249644622058e+00   1.425522284670141e+00  -6.892744433445424e-01
7.034000000003725e+04   4.732496966235267e+02   1.027541933043146e+03   6.828170059496222e+03   7.412530703832904e+00   1.419399832292300e+00  -7.302240195840144e-01
7.034500000026310e+04   5.103050911108757e+02   1.034623537480541e+03   6.824416609671968e+03   7.409590129348611e+00   1.413234866837771e+00  -7.711522458348591e-01
7.035000000017462e+04   5.473452288189674e+02   1.041674211187318e+03   6.820458574622345e+03   7.406428002241719e+00   1.407027569534284e+00  -8.120579074334060e-01
7.035500000008615e+04   5.843690021992553e+02   1.048693742959592e+03   6.816296070206208e+03   7.403044410004903e+00   1.400778122848313e+00  -8.529397902828877e-01
7.035999999999767e+04   6.213753041566663e+02   1.055681922508888e+03   6.811929218351394e+03   7.399439446549874e+00   1.394486710480447e+00  -8.937966808860925e-01
7.036500000022352e+04   6.583630280817084e+02   1.062638540468306e+03   6.807358147051661e+03   7.395613212206104e+00   1.388153517360717e+00  -9.346273663780299e-01
7.037000000013504e+04   6.953310678825742e+02   1.069563388398656e+03   6.802582990363429e+03   7.391565813719516e+00   1.381778729643911e+00  -9.754306345585979e-01
7.037500000004657e+04   7.322783180172335e+02   1.076456258794575e+03   6.797603888402386e+03   7.387297364250910e+00   1.375362534704846e+00  -1.016205273925256e+00
7.038000000027241e+04   7.692036735255207e+02   1.083316945090620e+03   6.792420987339893e+03   7.382807983374384e+00   1.368905121133626e+00  -1.056950073705712e+00
7.038500000018394e+04   8.061060300612124e+02   1.090145241667333e+03   6.787034439399285e+03   7.378097797075542e+00   1.362406678730866e+00  -1.097663823890604e+00
7.039000000009546e+04   8.429842839240948e+02   1.096940943857283e+03   6.781444402851947e+03   7.373166937749594e+00   1.355867398502883e+00  -1.138345315266200e+00
END Ephemeris

